STARLINK-2613
1 28353C 21038A   21325.13750298  .00022423  00000-0  15032-2 0  3254
2 28353  53.0539 207.6132 0002023  75.9453 128.9635 15.06354838    19
